[{"OBJECT_NAME":"STARLINK-30102","OBJECT_ID":"2023-105E","EPOCH":"2026-03-09T22:00:01.999584","MEAN_MOTION":15.26704613,"ECCENTRICITY":0.00011248,"INCLINATION":42.9995,"RA_OF_ASC_NODE":258.5663,"ARG_OF_PERICENTER":278.9847,"MEAN_ANOMALY":186.5611,"EPHEMERIS_TYPE":0,"CLASSIFICATION_TYPE":"U","NORAD_CAT_ID":57434,"ELEMENT_SET_NO":999,"REV_AT_EPOCH":572,"BSTAR":0.0024100227,"MEAN_MOTION_DOT":0.00064887,"MEAN_MOTION_DDOT":0},{"OBJECT_NAME":"FLOCK 4G-22","OBJECT_ID":"2025-009AN","EPOCH":"2026-03-09T22:51:40.689792","MEAN_MOTION":15.2720903,"ECCENTRICITY":8.959e-5,"INCLINATION":97.4046,"RA_OF_ASC_NODE":151.5884,"ARG_OF_PERICENTER":284.1963,"MEAN_ANOMALY":75.9176,"EPHEMERIS_TYPE":0,"CLASSIFICATION_TYPE":"U","NORAD_CAT_ID":62645,"ELEMENT_SET_NO":999,"REV_AT_EPOCH":6376,"BSTAR":0.00049035383,"MEAN_MOTION_DOT":0.00013013,"MEAN_MOTION_DDOT":0}]
